{
    "links": {
        "self": "http://www.neowsapp.com/rest/v1/neo/3429689?api_key=iIulBulltgU6a56xZRHN4H3l9WmuAYTsLGpBGhQ2"
    },
    "id": "3429689",
    "neo_reference_id": "3429689",
    "name": "(2008 TE1)",
    "designation": "2008 TE1",
    "nasa_jpl_url": "http://ssd.jpl.nasa.gov/sbdb.cgi?sstr=3429689",
    "absolute_magnitude_h": 25.4,
    "estimated_diameter": {
        "kilometers": {
            "estimated_diameter_min": 0.022108281,
            "estimated_diameter_max": 0.0494356193
        },
        "meters": {
            "estimated_diameter_min": 22.1082810359,
            "estimated_diameter_max": 49.435619262
        },
        "miles": {
            "estimated_diameter_min": 0.0137374447,
            "estimated_diameter_max": 0.0307178602
        },
        "feet": {
            "estimated_diameter_min": 72.5337327539,
            "estimated_diameter_max": 162.1903570994
        }
    },
    "is_potentially_hazardous_asteroid": false,
    "close_approach_data": [
        {
            "close_approach_date": "2008-10-01",
            "close_approach_date_full": "2008-Oct-01 04:55",
            "epoch_date_close_approach": 1222836900000,
            "relative_velocity": {
                "kilometers_per_second": "10.386265356",
                "kilometers_per_hour": "37390.555281595",
                "miles_per_hour": "23233.0369748333"
            },
            "miss_distance": {
                "astronomical": "0.0259404425",
                "lunar": "10.0908321325",
                "kilometers": "3880634.944857475",
                "miles": "2411314.740584155"
            },
            "orbiting_body": "Earth"
        }
    ],
    "orbital_data": {
        "orbit_id": "8",
        "orbit_determination_date": "2017-04-06 09:02:43",
        "first_observation_date": "2008-10-02",
        "last_observation_date": "2008-10-03",
        "data_arc_in_days": 1,
        "observations_used": 31,
        "orbit_uncertainty": "8",
        "minimum_orbit_intersection": ".0248468",
        "jupiter_tisserand_invariant": "3.717",
        "epoch_osculation": "2454742.5",
        "eccentricity": ".4726040688704363",
        "semi_major_axis": "1.943996120652233",
        "inclination": "15.0375575067113",
        "ascending_node_longitude": "9.225876412664663",
        "orbital_period": "990.0144141509884",
        "perihelion_distance": "1.025255644163644",
        "perihelion_argument": "2.969913770973231",
        "aphelion_distance": "2.862736597140822",
        "perihelion_time": "2454743.772520260971",
        "mean_anomaly": "359.5372720968488",
        "mean_motion": ".3636310692594582",
        "equinox": "J2000",
        "orbit_class": {
            "orbit_class_type": "AMO",
            "orbit_class_description": "Near-Earth asteroid orbits similar to that of 1221 Amor",
            "orbit_class_range": "1.017 AU < q (perihelion) < 1.3 AU"
        }
    },
    "is_sentry_object": false
}